LUCH 5V                 
1 39727U 14023A   17346.55807050 -.00000273  00000-0  00000+0 0  9991
2 39727   2.3556 299.0947 0003434 356.6208  81.3863  1.00271826531358
